[{"OBJECT_NAME":"ION SCV-017","OBJECT_ID":"2025-052W","EPOCH":"2026-03-09T17:11:44.577024","MEAN_MOTION":15.26881798,"ECCENTRICITY":0.0023746,"INCLINATION":97.4016,"RA_OF_ASC_NODE":324.7516,"ARG_OF_PERICENTER":44.9875,"MEAN_ANOMALY":315.3282,"EPHEMERIS_TYPE":0,"CLASSIFICATION_TYPE":"U","NORAD_CAT_ID":63230,"ELEMENT_SET_NO":999,"REV_AT_EPOCH":5485,"BSTAR":0.00024539061,"MEAN_MOTION_DOT":6.457e-5,"MEAN_MOTION_DDOT":0},{"OBJECT_NAME":"STARLINK-36154","OBJECT_ID":"2025-286Q","EPOCH":"2026-03-09T01:55:57.837792","MEAN_MOTION":15.30172711,"ECCENTRICITY":0.00012955,"INCLINATION":53.1618,"RA_OF_ASC_NODE":1.2703,"ARG_OF_PERICENTER":54.3015,"MEAN_ANOMALY":305.8106,"EPHEMERIS_TYPE":0,"CLASSIFICATION_TYPE":"U","NORAD_CAT_ID":66939,"ELEMENT_SET_NO":999,"REV_AT_EPOCH":1532,"BSTAR":0.0016559149,"MEAN_MOTION_DOT":0.00048966,"MEAN_MOTION_DDOT":0}]
